{
  "norad_id": 62388,
  "name": "GITAI-SC1",
  "history": [
    {
      "epoch": "2026-03-28T12:39:31.508928",
      "apogee_km": 504.98282541503704,
      "perigee_km": 503.70364763827547,
      "latitude_deg": -17.3052095282081,
      "longitude_deg": 109.43500992003828,
      "semi_major_axis_km": 6882.480236526656,
      "eccentricity": 9.293e-05,
      "inclination_deg": 45.004,
      "raan_deg": 27.5105,
      "arg_perigee_deg": 291.9041,
      "mean_anomaly_deg": 68.1741,
      "mean_motion_rev_day": 15.20496072
    }
  ]
}