{"fetched_at":"2026-03-30T06:02:59Z","count":15439,"tles":[{"name":"GITAI-SC1","line1":"1 62388U 24247M   26087.52744802  .00006867  00000+0  32081-3 0  9994","line2":"2 62388  45.0040  27.5105 0000929 291.9041  68.1741 15.20496072 70457","category":"Other"}]}